CCSDS_OMM_VERS = 2.0
CREATION_DATE  = 
ORIGINATOR     = 

OBJECT_NAME    = STARLINK-35498
OBJECT_ID      = 2025-293Q
CENTER_NAME    = EARTH
REF_FRAME      = TEME
TIME_SYSTEM    = UTC
MEAN_ELEMENT_THEORY = SGP/SGP4

EPOCH          = 2026-01-09T06:00:00.999648
MEAN_MOTION    = 15.52552902
ECCENTRICITY   = .00032193
INCLINATION    = 69.9996
RA_OF_ASC_NODE = 246.1094
ARG_OF_PERICENTER = 272.1996
MEAN_ANOMALY   = 303.9824

EPHEMERIS_TYPE = 0
CLASSIFICATION_TYPE = U
NORAD_CAT_ID   = 67017
ELEMENT_SET_NO = 999
REV_AT_EPOCH   = 470
BSTAR          = -.15828172E-2
MEAN_MOTION_DOT = -.96489E-3
MEAN_MOTION_DDOT = 0

CCSDS_OMM_VERS = 2.0
CREATION_DATE  = 
ORIGINATOR     = 

OBJECT_NAME    = STARLINK-36106
OBJECT_ID      = 2025-293R
CENTER_NAME    = EARTH
REF_FRAME      = TEME
TIME_SYSTEM    = UTC
MEAN_ELEMENT_THEORY = SGP/SGP4

EPOCH          = 2026-01-09T06:00:00.999648
MEAN_MOTION    = 15.52556591
ECCENTRICITY   = .00033588
INCLINATION    = 69.9997
RA_OF_ASC_NODE = 246.1069
ARG_OF_PERICENTER = 274.5251
MEAN_ANOMALY   = 303.5732

EPHEMERIS_TYPE = 0
CLASSIFICATION_TYPE = U
NORAD_CAT_ID   = 67018
ELEMENT_SET_NO = 999
REV_AT_EPOCH   = 462
BSTAR          = -.16826808E-2
MEAN_MOTION_DOT = -.102505E-2
MEAN_MOTION_DDOT = 0

CCSDS_OMM_VERS = 2.0
CREATION_DATE  = 
ORIGINATOR     = 

OBJECT_NAME    = STARLINK-35688
OBJECT_ID      = 2025-293S
CENTER_NAME    = EARTH
REF_FRAME      = TEME
TIME_SYSTEM    = UTC
MEAN_ELEMENT_THEORY = SGP/SGP4

EPOCH          = 2026-01-09T06:00:00.999648
MEAN_MOTION    = 15.52563044
ECCENTRICITY   = .00033428
INCLINATION    = 69.9997
RA_OF_ASC_NODE = 246.1052
ARG_OF_PERICENTER = 274.9424
MEAN_ANOMALY   = 305.0669

EPHEMERIS_TYPE = 0
CLASSIFICATION_TYPE = U
NORAD_CAT_ID   = 67019
ELEMENT_SET_NO = 999
REV_AT_EPOCH   = 470
BSTAR          = -.17984303E-2
MEAN_MOTION_DOT = -.109475E-2
MEAN_MOTION_DDOT = 0

CCSDS_OMM_VERS = 2.0
CREATION_DATE  = 
ORIGINATOR     = 

OBJECT_NAME    = STARLINK-36172
OBJECT_ID      = 2025-293T
CENTER_NAME    = EARTH
REF_FRAME      = TEME
TIME_SYSTEM    = UTC
MEAN_ELEMENT_THEORY = SGP/SGP4

EPOCH          = 2026-01-09T05:02:50.583552
MEAN_MOTION    = 15.52562930
ECCENTRICITY   = .0003404
INCLINATION    = 70.0008
RA_OF_ASC_NODE = 246.2099
ARG_OF_PERICENTER = 263.8267
MEAN_ANOMALY   = 96.2532

EPHEMERIS_TYPE = 0
CLASSIFICATION_TYPE = U
NORAD_CAT_ID   = 67020
ELEMENT_SET_NO = 999
REV_AT_EPOCH   = 592
BSTAR          = .20152865E-2
MEAN_MOTION_DOT = .125998E-2
MEAN_MOTION_DDOT = 0

CCSDS_OMM_VERS = 2.0
CREATION_DATE  = 
ORIGINATOR     = 

OBJECT_NAME    = STARLINK-36184
OBJECT_ID      = 2025-293U
CENTER_NAME    = EARTH
REF_FRAME      = TEME
TIME_SYSTEM    = UTC
MEAN_ELEMENT_THEORY = SGP/SGP4

EPOCH          = 2026-01-09T06:00:00.999648
MEAN_MOTION    = 15.52558988
ECCENTRICITY   = .00031616
INCLINATION    = 69.9996
RA_OF_ASC_NODE = 246.0997
ARG_OF_PERICENTER = 276.8252
MEAN_ANOMALY   = 307.0243

EPHEMERIS_TYPE = 0
CLASSIFICATION_TYPE = U
NORAD_CAT_ID   = 67021
ELEMENT_SET_NO = 999
REV_AT_EPOCH   = 462
BSTAR          = -.18030221E-2
MEAN_MOTION_DOT = -.109731E-2
MEAN_MOTION_DDOT = 0

CCSDS_OMM_VERS = 2.0
CREATION_DATE  = 
ORIGINATOR     = 

OBJECT_NAME    = STARLINK-36209
OBJECT_ID      = 2025-293V
CENTER_NAME    = EARTH
REF_FRAME      = TEME
TIME_SYSTEM    = UTC
MEAN_ELEMENT_THEORY = SGP/SGP4

EPOCH          = 2026-01-09T06:00:00.999648
MEAN_MOTION    = 15.52552409
ECCENTRICITY   = .00032713
INCLINATION    = 69.9997
RA_OF_ASC_NODE = 246.0977
ARG_OF_PERICENTER = 274.8599
MEAN_ANOMALY   = 310.9050

EPHEMERIS_TYPE = 0
CLASSIFICATION_TYPE = U
NORAD_CAT_ID   = 67022
ELEMENT_SET_NO = 999
REV_AT_EPOCH   = 462
BSTAR          = -.15311677E-2
MEAN_MOTION_DOT = -.93381E-3
MEAN_MOTION_DDOT = 0

CCSDS_OMM_VERS = 2.0
CREATION_DATE  = 
ORIGINATOR     = 

OBJECT_NAME    = STARLINK-36191
OBJECT_ID      = 2025-293W
CENTER_NAME    = EARTH
REF_FRAME      = TEME
TIME_SYSTEM    = UTC
MEAN_ELEMENT_THEORY = SGP/SGP4

EPOCH          = 2026-01-09T06:00:00.999648
MEAN_MOTION    = 15.52551237
ECCENTRICITY   = .00033215
INCLINATION    = 69.9997
RA_OF_ASC_NODE = 246.0958
ARG_OF_PERICENTER = 274.9212
MEAN_ANOMALY   = 312.7602

EPHEMERIS_TYPE = 0
CLASSIFICATION_TYPE = U
NORAD_CAT_ID   = 67023
ELEMENT_SET_NO = 999
REV_AT_EPOCH   = 451
BSTAR          = -.15365574E-2
MEAN_MOTION_DOT = -.93702E-3
MEAN_MOTION_DDOT = 0

CCSDS_OMM_VERS = 2.0
CREATION_DATE  = 
ORIGINATOR     = 

OBJECT_NAME    = STARLINK-36192
OBJECT_ID      = 2025-293X
CENTER_NAME    = EARTH
REF_FRAME      = TEME
TIME_SYSTEM    = UTC
MEAN_ELEMENT_THEORY = SGP/SGP4

EPOCH          = 2026-01-09T00:22:31.517184
MEAN_MOTION    = 15.52546164
ECCENTRICITY   = .00036425
INCLINATION    = 69.9995
RA_OF_ASC_NODE = 246.7361
ARG_OF_PERICENTER = 264.3424
MEAN_ANOMALY   = 95.7348

EPHEMERIS_TYPE = 0
CLASSIFICATION_TYPE = U
NORAD_CAT_ID   = 67024
ELEMENT_SET_NO = 999
REV_AT_EPOCH   = 590
BSTAR          = .11998548E-2
MEAN_MOTION_DOT = .74419E-3
MEAN_MOTION_DDOT = 0

CCSDS_OMM_VERS = 2.0
CREATION_DATE  = 
ORIGINATOR     = 

OBJECT_NAME    = STARLINK-36178
OBJECT_ID      = 2025-293Y
CENTER_NAME    = EARTH
REF_FRAME      = TEME
TIME_SYSTEM    = UTC
MEAN_ELEMENT_THEORY = SGP/SGP4

EPOCH          = 2026-01-09T01:54:48.681504
MEAN_MOTION    = 15.52564063
ECCENTRICITY   = .00030782
INCLINATION    = 70.0030
RA_OF_ASC_NODE = 246.5587
ARG_OF_PERICENTER = 283.5362
MEAN_ANOMALY   = 76.5482

EPHEMERIS_TYPE = 0
CLASSIFICATION_TYPE = U
NORAD_CAT_ID   = 67025
ELEMENT_SET_NO = 999
REV_AT_EPOCH   = 591
BSTAR          = .16086793E-2
MEAN_MOTION_DOT = .100216E-2
MEAN_MOTION_DDOT = 0

CCSDS_OMM_VERS = 2.0
CREATION_DATE  = 
ORIGINATOR     = 

OBJECT_NAME    = STARLINK-36176
OBJECT_ID      = 2025-293Z
CENTER_NAME    = EARTH
REF_FRAME      = TEME
TIME_SYSTEM    = UTC
MEAN_ELEMENT_THEORY = SGP/SGP4

EPOCH          = 2026-01-09T06:00:00.999648
MEAN_MOTION    = 15.52552897
ECCENTRICITY   = .00033247
INCLINATION    = 69.9994
RA_OF_ASC_NODE = 246.0860
ARG_OF_PERICENTER = 274.7917
MEAN_ANOMALY   = 320.5549

EPHEMERIS_TYPE = 0
CLASSIFICATION_TYPE = U
NORAD_CAT_ID   = 67026
ELEMENT_SET_NO = 999
REV_AT_EPOCH   = 462
BSTAR          = -.1554295E-2
MEAN_MOTION_DOT = -.94775E-3
MEAN_MOTION_DDOT = 0

CCSDS_OMM_VERS = 2.0
CREATION_DATE  = 
ORIGINATOR     = 

OBJECT_NAME    = STARLINK-36171
OBJECT_ID      = 2025-293AA
CENTER_NAME    = EARTH
REF_FRAME      = TEME
TIME_SYSTEM    = UTC
MEAN_ELEMENT_THEORY = SGP/SGP4

EPOCH          = 2026-01-09T01:54:19.179360
MEAN_MOTION    = 15.52533337
ECCENTRICITY   = .00032619
INCLINATION    = 69.9998
RA_OF_ASC_NODE = 246.5570
ARG_OF_PERICENTER = 264.4961
MEAN_ANOMALY   = 95.5854

EPHEMERIS_TYPE = 0
CLASSIFICATION_TYPE = U
NORAD_CAT_ID   = 67027
ELEMENT_SET_NO = 999
REV_AT_EPOCH   = 591
BSTAR          = .11200595E-2
MEAN_MOTION_DOT = .69379E-3
MEAN_MOTION_DDOT = 0

CCSDS_OMM_VERS = 2.0
CREATION_DATE  = 
ORIGINATOR     = 

OBJECT_NAME    = STARLINK-36132
OBJECT_ID      = 2025-293AB
CENTER_NAME    = EARTH
REF_FRAME      = TEME
TIME_SYSTEM    = UTC
MEAN_ELEMENT_THEORY = SGP/SGP4

EPOCH          = 2026-01-09T04:58:23.973888
MEAN_MOTION    = 15.52544935
ECCENTRICITY   = .00032206
INCLINATION    = 70.0002
RA_OF_ASC_NODE = 246.1994
ARG_OF_PERICENTER = 273.3655
MEAN_ANOMALY   = 86.7164

EPHEMERIS_TYPE = 0
CLASSIFICATION_TYPE = U
NORAD_CAT_ID   = 67028
ELEMENT_SET_NO = 999
REV_AT_EPOCH   = 593
BSTAR          = .19813392E-2
MEAN_MOTION_DOT = .123756E-2
MEAN_MOTION_DDOT = 0

