STARLINK-35498          
1 67017U 25293Q   26009.25001157 -.00096489  00000+0 -15828-2 0  9993
2 67017  69.9996 246.1094 0003219 272.1996 303.9824 15.52552902  4704
STARLINK-36106          
1 67018U 25293R   26009.25001157 -.00102505  00000+0 -16827-2 0  9991
2 67018  69.9997 246.1069 0003358 274.5251 303.5732 15.52556591  4625
STARLINK-35688          
1 67019U 25293S   26009.25001157 -.00109475  00000+0 -17984-2 0  9990
2 67019  69.9997 246.1052 0003342 274.9424 305.0669 15.52563044  4703
STARLINK-36172          
1 67020U 25293T   26009.21030768  .00125998  00000+0  20153-2 0  9996
2 67020  70.0008 246.2099 0003404 263.8267  96.2532 15.52562930  5920
STARLINK-36184          
1 67021U 25293U   26009.25001157 -.00109731  00000+0 -18030-2 0  9991
2 67021  69.9996 246.0997 0003161 276.8252 307.0243 15.52558988  4623
STARLINK-36209          
1 67022U 25293V   26009.25001157 -.00093381  00000+0 -15312-2 0  9995
2 67022  69.9997 246.0977 0003271 274.8599 310.9050 15.52552409  4628
STARLINK-36191          
1 67023U 25293W   26009.25001157 -.00093702  00000+0 -15366-2 0  9992
2 67023  69.9997 246.0958 0003321 274.9212 312.7602 15.52551237  4516
STARLINK-36192          
1 67024U 25293X   26009.01564256  .00074419  00000+0  11999-2 0  9991
2 67024  69.9995 246.7361 0003642 264.3424  95.7348 15.52546164  5906
STARLINK-36178          
1 67025U 25293Y   26009.07973011  .00100216  00000+0  16087-2 0  9999
2 67025  70.0030 246.5587 0003078 283.5362  76.5482 15.52564063  5910
STARLINK-36176          
1 67026U 25293Z   26009.25001157 -.00094775  00000+0 -15543-2 0  9993
2 67026  69.9994 246.0860 0003324 274.7917 320.5549 15.52552897  4623
STARLINK-36171          
1 67027U 25293AA  26009.07938865  .00069379  00000+0  11201-2 0  9996
2 67027  69.9998 246.5570 0003261 264.4961  95.5854 15.52533337  5915
STARLINK-36132          
1 67028U 25293AB  26009.20722192  .00123756  00000+0  19813-2 0  9993
2 67028  70.0002 246.1994 0003220 273.3655  86.7164 15.52544935  5939
